{"type": "FeatureCollection", "features": [ {"type": "Feature", "properties": {"norad_id": 43010, "name": "FENGYUN 3D", "group": "weather", "lat": -67.26032682692, "lon": -9.459554857599862, "alt_km": 834.6284011503858, "timestamp": "2025-12-27T19:21:58.420957+00:00", "meta": {"OBJECT_NAME": "FENGYUN 3D", "OBJECT_ID": "2017-072A", "EPOCH": "2025-12-27T12:55:30.614592", "MEAN_MOTION": 14.19689013, "ECCENTRICITY": 0.0001646, "INCLINATION": 98.9917, "RA_OF_ASC_NODE": 328.0717, "ARG_OF_PERICENTER": 143.1689, "MEAN_ANOMALY": 216.9599, "EPHEMERIS_TYPE": 0, "CLASSIFICATION_TYPE": "U", "NORAD_CAT_ID": 43010, "ELEMENT_SET_NO": 999, "REV_AT_EPOCH": 42063, "BSTAR": 0.00019678, "MEAN_MOTION_DOT": 3.7e-06, "MEAN_MOTION_DDOT": 0}, "tle": {"line1": "1 43010U 17072A   25361.53854878  .00000370  00000+0  19678-3 0  9993", "line2": "2 43010  98.9917 328.0717 0001646 143.1689 216.9599 14.19689013420638"}}, "geometry": {"type": "Point", "coordinates": [-9.459554857599862, -67.26032682692]}}, {"type": "Feature", "properties": {"norad_id": 43013, "name": "NOAA 20 (JPSS-1)", "group": "weather", "lat": 72.18634249525489, "lon": -90.74218339380319, "alt_km": 818.5133600878498, "timestamp": "2025-12-27T19:21:58.420973+00:00", "meta": {"OBJECT_NAME": "NOAA 20 (JPSS-1)", "OBJECT_ID": "2017-073A", "EPOCH": "2025-12-27T10:33:31.490784", "MEAN_MOTION": 14.19529775, "ECCENTRICITY": 0.0002043, "INCLINATION": 98.7617, "RA_OF_ASC_NODE": 297.5771, "ARG_OF_PERICENTER": 66.3036, "MEAN_ANOMALY": 293.8354, "EPHEMERIS_TYPE": 0, "CLASSIFICATION_TYPE": "U", "NORAD_CAT_ID": 43013, "ELEMENT_SET_NO": 999, "REV_AT_EPOCH": 42010, "BSTAR": 7.9226e-05, "MEAN_MOTION_DOT": 1.23e-06, "MEAN_MOTION_DDOT": 0}, "tle": {"line1": "1 43013U 17073A   25361.43994781  .00000123  00000+0  79226-4 0  9996", "line2": "2 43013  98.7617 297.5771 0002043  66.3036 293.8354 14.19529775420103"}}, "geometry": {"type": "Point", "coordinates": [-90.74218339380319, 72.18634249525489]}}, {"type": "Feature", "properties": {"norad_id": 43226, "name": "GOES 17", "group": "weather", "lat": -0.2537360811383535, "lon": -62.47081801490765, "alt_km": 35773.19402182105, "timestamp": "2025-12-27T19:21:58.420992+00:00", "meta": {"OBJECT_NAME": "GOES 17", "OBJECT_ID": "2018-022A", "EPOCH": "2025-12-27T08:56:34.692000", "MEAN_MOTION": 1.00271241, "ECCENTRICITY": 0.0003239, "INCLINATION": 0.4934, "RA_OF_ASC_NODE": 88.9909, "ARG_OF_PERICENTER": 191.4185, "MEAN_ANOMALY": 220.3403, "EPHEMERIS_TYPE": 0, "CLASSIFICATION_TYPE": "U", "NORAD_CAT_ID": 43226, "ELEMENT_SET_NO": 999, "REV_AT_EPOCH": 2870, "BSTAR": 0, "MEAN_MOTION_DOT": -1.6e-06, "MEAN_MOTION_DDOT": 0}, "tle": {"line1": "1 43226U 18022A   25361.37262375 -.00000160  00000+0  00000+0 0  9998", "line2": "2 43226   0.4934  88.9909 0003239 191.4185 220.3403  1.00271241 28707"}}, "geometry": {"type": "Point", "coordinates": [-62.47081801490765, -0.2537360811383535]}}, {"type": "Feature", "properties": {"norad_id": 43491, "name": "FENGYUN 2H", "group": "weather", "lat": 1.1178367706521215, "lon": 106.29916187117958, "alt_km": 35794.762455800344, "timestamp": "2025-12-27T19:21:58.421018+00:00", "meta": {"OBJECT_NAME": "FENGYUN 2H", "OBJECT_ID": "2018-050A", "EPOCH": "2025-12-27T09:57:15.328800", "MEAN_MOTION": 1.00269954, "ECCENTRICITY": 0.0002498, "INCLINATION": 2.5864, "RA_OF_ASC_NODE": 81.1754, "ARG_OF_PERICENTER": 166.7806, "MEAN_ANOMALY": 76.826, "EPHEMERIS_TYPE": 0, "CLASSIFICATION_TYPE": "U", "NORAD_CAT_ID": 43491, "ELEMENT_SET_NO": 999, "REV_AT_EPOCH": 2771, "BSTAR": 0, "MEAN_MOTION_DOT": -1.08e-06, "MEAN_MOTION_DDOT": 0}, "tle": {"line1": "1 43491U 18050A   25361.41476075 -.00000108  00000+0  00000+0 0  9994", "line2": "2 43491   2.5864  81.1754 0002498 166.7806  76.8260  1.00269954 27713"}}, "geometry": {"type": "Point", "coordinates": [106.29916187117958, 1.1178367706521215]}}, {"type": "Feature", "properties": {"norad_id": 43689, "name": "METOP-C", "group": "weather", "lat": -38.05082648573988, "lon": 66.21992041391805, "alt_km": 826.4479823555366, "timestamp": "2025-12-27T19:21:58.421035+00:00", "meta": {"OBJECT_NAME": "METOP-C", "OBJECT_ID": "2018-087A", "EPOCH": "2025-12-27T11:06:02.534112", "MEAN_MOTION": 14.21490014, "ECCENTRICITY": 4.99e-05, "INCLINATION": 98.6909, "RA_OF_ASC_NODE": 59.0049, "ARG_OF_PERICENTER": 10.8066, "MEAN_ANOMALY": 349.3122, "EPHEMERIS_TYPE": 0, "CLASSIFICATION_TYPE": "U", "NORAD_CAT_ID": 43689, "ELEMENT_SET_NO": 999, "REV_AT_EPOCH": 37043, "BSTAR": 8.76e-05, "MEAN_MOTION_DOT": 1.48e-06, "MEAN_MOTION_DDOT": 0}, "tle": {"line1": "1 43689U 18087A   25361.46252933  .00000148  00000+0  87600-4 0  9992", "line2": "2 43689  98.6909  59.0049 0000499  10.8066 349.3122 14.21490014370430"}}, "geometry": {"type": "Point", "coordinates": [66.21992041391805, -38.05082648573988]}}, {"type": "Feature", "properties": {"norad_id": 43823, "name": "GEO-KOMPSAT-2A", "group": "weather", "lat": 0.010468831386626867, "lon": 155.27559865710896, "alt_km": 35785.096376997666, "timestamp": "2025-12-27T19:21:58.421052+00:00", "meta": {"OBJECT_NAME": "GEO-KOMPSAT-2A", "OBJECT_ID": "2018-100A", "EPOCH": "2025-12-27T06:45:48.663072", "MEAN_MOTION": 1.00272243, "ECCENTRICITY": 3.26e-05, "INCLINATION": 0.0436, "RA_OF_ASC_NODE": 168.1676, "ARG_OF_PERICENTER": 299.8205, "MEAN_ANOMALY": 217.7331, "EPHEMERIS_TYPE": 0, "CLASSIFICATION_TYPE": "U", "NORAD_CAT_ID": 43823, "ELEMENT_SET_NO": 999, "REV_AT_EPOCH": 2590, "BSTAR": 0, "MEAN_MOTION_DOT": -3.21e-06, "MEAN_MOTION_DDOT": 0}, "tle": {"line1": "1 43823U 18100A   25361.28181323 -.00000321  00000+0  00000+0 0  9990", "line2": "2 43823   0.0436 168.1676 0000326 299.8205 217.7331  1.00272243 25907"}}, "geometry": {"type": "Point", "coordinates": [155.27559865710896, 0.010468831386626867]}}, {"type": "Feature", "properties": {"norad_id": 44387, "name": "METEOR-M2 2", "group": "weather", "lat": -7.999442076820511, "lon": 160.45947723948927, "alt_km": 814.2318933000561, "timestamp": "2025-12-27T19:21:58.421070+00:00", "meta": {"OBJECT_NAME": "METEOR-M2 2", "OBJECT_ID": "2019-038A", "EPOCH": "2025-12-27T13:25:43.067136", "MEAN_MOTION": 14.2429876, "ECCENTRICITY": 0.0001862, "INCLINATION": 98.8993, "RA_OF_ASC_NODE": 341.4707, "ARG_OF_PERICENTER": 121.2969, "MEAN_ANOMALY": 238.8392, "EPHEMERIS_TYPE": 0, "CLASSIFICATION_TYPE": "U", "NORAD_CAT_ID": 44387, "ELEMENT_SET_NO": 999, "REV_AT_EPOCH": 33686, "BSTAR": 0.00019874, "MEAN_MOTION_DOT": 4.13e-06, "MEAN_MOTION_DDOT": 0}, "tle": {"line1": "1 44387U 19038A   25361.55952624  .00000413  00000+0  19874-3 0  9991", "line2": "2 44387  98.8993 341.4707 0001862 121.2969 238.8392 14.24298760336861"}}, "geometry": {"type": "Point", "coordinates": [160.45947723948927, -7.999442076820511]}}, {"type": "Feature", "properties": {"norad_id": 47719, "name": "ARKTIKA-M 1", "group": "weather", "lat": 62.14315335262887, "lon": -171.01685166332598, "alt_km": 37981.575175174105, "timestamp": "2025-12-27T19:21:58.421089+00:00", "meta": {"OBJECT_NAME": "ARKTIKA-M 1", "OBJECT_ID": "2021-016A", "EPOCH": "2025-12-27T00:43:39.557280", "MEAN_MOTION": 2.00630341, "ECCENTRICITY": 0.72112825, "INCLINATION": 63.1774, "RA_OF_ASC_NODE": 82.0436, "ARG_OF_PERICENTER": 269.1745, "MEAN_ANOMALY": 15.5297, "EPHEMERIS_TYPE": 0, "CLASSIFICATION_TYPE": "U", "NORAD_CAT_ID": 47719, "ELEMENT_SET_NO": 999, "REV_AT_EPOCH": 3533, "BSTAR": 0, "MEAN_MOTION_DOT": -4.6e-07, "MEAN_MOTION_DDOT": 0}, "tle": {"line1": "1 47719U 21016A   25361.03031895 -.00000046  00000+0  00000+0 0  9993", "line2": "2 47719  63.1774  82.0436 7211282 269.1745  15.5297  2.00630341 35330"}}, "geometry": {"type": "Point", "coordinates": [-171.01685166332598, 62.14315335262887]}}, {"type": "Feature", "properties": {"norad_id": 49008, "name": "FENGYUN 3E", "group": "weather", "lat": -81.0148839094518, "lon": 105.28006127271318, "alt_km": 833.0399104061898, "timestamp": "2025-12-27T19:21:58.421106+00:00", "meta": {"OBJECT_NAME": "FENGYUN 3E", "OBJECT_ID": "2021-062A", "EPOCH": "2025-12-27T13:02:03.437376", "MEAN_MOTION": 14.19882659, "ECCENTRICITY": 0.0001049, "INCLINATION": 98.7484, "RA_OF_ASC_NODE": 1.8888, "ARG_OF_PERICENTER": 181.5809, "MEAN_ANOMALY": 178.5364, "EPHEMERIS_TYPE": 0, "CLASSIFICATION_TYPE": "U", "NORAD_CAT_ID": 49008, "ELEMENT_SET_NO": 999, "REV_AT_EPOCH": 23222, "BSTAR": 9.7846e-05, "MEAN_MOTION_DOT": 1.64e-06, "MEAN_MOTION_DDOT": 0}, "tle": {"line1": "1 49008U 21062A   25361.54309534  .00000164  00000+0  97846-4 0  9990", "line2": "2 49008  98.7484   1.8888 0001049 181.5809 178.5364 14.19882659232220"}}, "geometry": {"type": "Point", "coordinates": [105.28006127271318, -81.0148839094518]}}, {"type": "Feature", "properties": {"norad_id": 51850, "name": "GOES 18", "group": "weather", "lat": 0.007858244720746721, "lon": -109.99074918469991, "alt_km": 35784.84604636078, "timestamp": "2025-12-27T19:21:58.421123+00:00", "meta": {"OBJECT_NAME": "GOES 18", "OBJECT_ID": "2022-021A", "EPOCH": "2025-12-27T11:12:38.489760", "MEAN_MOTION": 1.00271693, "ECCENTRICITY": 5.61e-05, "INCLINATION": 0.0418, "RA_OF_ASC_NODE": 194.3227, "ARG_OF_PERICENTER": 114.6475, "MEAN_ANOMALY": 178.3839, "EPHEMERIS_TYPE": 0, "CLASSIFICATION_TYPE": "U", "NORAD_CAT_ID": 51850, "ELEMENT_SET_NO": 999, "REV_AT_EPOCH": 487, "BSTAR": 0, "MEAN_MOTION_DOT": 1.19e-06, "MEAN_MOTION_DDOT": 0}, "tle": {"line1": "1 51850U 22021A   25361.46711215  .00000119  00000+0  00000+0 0  9999", "line2": "2 51850   0.0418 194.3227 0000561 114.6475 178.3839  1.00271693  4879"}}, "geometry": {"type": "Point", "coordinates": [-109.99074918469991, 0.007858244720746721]}}]}